NORAD_CAT_ID,OBJECT_NAME,OBJECT_TYPE,EPOCH,MEAN_MOTION,ECCENTRICITY,INCLINATION,RA_OF_ASC_NODE,ARG_OF_PERICENTER,MEAN_ANOMALY,BSTAR,MEAN_MOTION_DOT,MEAN_MOTION_DDOT,TLE_LINE0,TLE_LINE1,TLE_LINE2,SEMIMAJOR_AXIS,PERIOD,APOGEE,PERIGEE,DECAYED
52661.0,STARLINK-4042,PAYLOAD,2023-04-09 03:30:21,15.08834211,0.0001349,53.2156,257.5316,83.6713,276.4433,6.631e-05,7.67e-06,0.0,0 STARLINK-4042,1 52661U 22053F   23099.14607661  .00000767  00000-0  66310-4 0  9996,2 52661  53.2156 257.5316 0001349  83.6713 276.4433 15.08834211 50184,6917.898,95.438,540.696,538.83,0.0
52661.0,STARLINK-4042,PAYLOAD,2023-04-09 16:13:26,15.08824992,0.000128,53.2149,255.1519,88.5389,271.5749,-0.00016753,-2.952e-05,0.0,0 STARLINK-4042,1 52661U 22053F   23099.67600341 -.00002952  00000-0 -16753-3 0  9997,2 52661  53.2149 255.1519 0001280  88.5389 271.5749 15.08824992 50262,6917.926,95.439,540.677,538.906,0.0
52661.0,STARLINK-4042,PAYLOAD,2023-04-09 17:48:49,15.08827281,0.0001272,53.2145,254.8559,92.4898,267.624,-0.00012958,-2.349e-05,0.0,0 STARLINK-4042,1 52661U 22053F   23099.74224476 -.00002349  00000-0 -12958-3 0  9999,2 52661  53.2145 254.8559 0001272  92.4898 267.6240 15.08827281 50275,6917.919,95.438,540.664,538.904,0.0
52661.0,STARLINK-4042,PAYLOAD,2023-04-10 12:53:26,15.08844113,0.0001097,53.2153,251.2887,98.0724,262.0392,0.00021276,3.1e-05,0.0,0 STARLINK-4042,1 52661U 22053F   23100.53711661  .00003100  00000-0  21276-3 0  9993,2 52661  53.2153 251.2887 0001097  98.0724 262.0392 15.08844113 50397,6917.868,95.437,540.492,538.974,0.0
52661.0,STARLINK-4042,PAYLOAD,2023-04-10 19:14:59,15.08857929,0.000109,53.2145,250.0982,90.0348,270.0769,0.00041407,6.311e-05,0.0,0 STARLINK-4042,1 52661U 22053F   23100.80207187  .00006311  00000-0  41407-3 0  9991,2 52661  53.2145 250.0982 0001090  90.0348 270.0769 15.08857929 50439,6917.826,95.436,540.445,538.937,0.0
52661.0,STARLINK-4042,PAYLOAD,2023-04-11 12:44:14,15.08840266,0.0001502,53.2138,246.8302,60.2985,299.8157,0.00023498,3.454e-05,0.0,0 STARLINK-4042,1 52661U 22053F   23101.53072444  .00003454  00000-0  23498-3 0  9993,2 52661  53.2138 246.8302 0001502  60.2985 299.8157 15.08840266 50542,6917.88,95.438,540.784,538.706,0.0
52661.0,STARLINK-4042,PAYLOAD,2023-04-11 19:05:46,15.08848291,0.0001749,53.213,245.6423,56.2508,303.865,0.00031524,4.734e-05,0.0,0 STARLINK-4042,1 52661U 22053F   23101.79568048  .00004734  00000-0  31524-3 0  9992,2 52661  53.2130 245.6423 0001749  56.2508 303.8650 15.08848291 50588,6917.855,95.437,540.93,538.51,0.0
52661.0,STARLINK-4042,PAYLOAD,2023-04-12 09:24:14,15.08842049,0.0001583,53.2142,242.9643,72.5434,287.5731,-0.00011869,-2.177e-05,0.0,0 STARLINK-4042,1 52661U 22053F   23102.39183761 -.00002177  00000-0 -11869-3 0  9995,2 52661  53.2142 242.9643 0001583  72.5434 287.5731 15.08842049 50673,6917.874,95.437,540.834,538.644,0.0
52661.0,STARLINK-4042,PAYLOAD,2023-04-13 09:15:01,15.08847543,0.0001774,53.211,238.5015,87.4643,272.6552,-5.6664e-05,-1.19e-05,0.0,0 STARLINK-4042,1 52661U 22053F   23103.38543749 -.00001190  00000-0 -56664-4 0  9998,2 52661  53.2110 238.5015 0001774  87.4643 272.6552 15.08847543 50828,6917.857,95.437,540.95,538.495,0.0
52661.0,STARLINK-4042,PAYLOAD,2023-04-14 12:16:35,15.08841878,0.0001322,53.2126,233.446,86.7177,273.3966,9.0668e-05,1.155e-05,0.0,0 STARLINK-4042,1 52661U 22053F   23104.51151782  .00001155  00000-0  90668-4 0  9997,2 52661  53.2126 233.4460 0001322  86.7177 273.3966 15.08841878 50996,6917.875,95.437,540.654,538.825,0.0
52661.0,STARLINK-4042,PAYLOAD,2023-04-14 18:38:07,15.08855573,0.0001178,53.2133,232.2562,87.5106,272.6021,0.00034573,5.221e-05,0.0,0 STARLINK-4042,1 52661U 22053F   23104.77647252  .00005221  00000-0  34573-3 0  9997,2 52661  53.2133 232.2562 0001178  87.5106 272.6021 15.08855573 51031,6917.833,95.437,540.513,538.883,0.0
52661.0,STARLINK-4042,PAYLOAD,2023-04-15 12:07:22,15.08839921,0.0001049,53.2157,228.9856,93.2539,266.8573,-1.7291e-05,-5.63e-06,0.0,0 STARLINK-4042,1 52661U 22053F   23105.50511590 -.00000563  00000-0 -17291-4 0  9999,2 52661  53.2157 228.9856 0001049  93.2539 266.8573 15.08839921 51144,6917.881,95.438,540.471,539.02,0.0
52661.0,STARLINK-4042,PAYLOAD,2023-04-15 13:42:45,15.08841748,0.0001048,53.2159,228.6883,92.8574,267.2538,3.2063e-05,2.23e-06,0.0,0 STARLINK-4042,1 52661U 22053F   23105.57135542  .00000223  00000-0  32063-4 0  9990,2 52661  53.2159 228.6883 0001048  92.8574 267.2538 15.08841748 51153,6917.875,95.437,540.465,539.015,0.0
52661.0,STARLINK-4042,PAYLOAD,2023-04-15 20:04:17,15.0885629,0.0001037,53.2143,227.4974,104.0525,256.0583,0.00035078,5.302e-05,0.0,0 STARLINK-4042,1 52661U 22053F   23105.83631066  .00005302  00000-0  35078-3 0  9992,2 52661  53.2143 227.4974 0001037 104.0525 256.0583 15.08856290 51192,6917.831,95.437,540.413,538.978,0.0
52661.0,STARLINK-4042,PAYLOAD,2023-04-16 00:50:26,15.08833499,0.0001642,53.2165,226.6113,231.6221,128.4624,-0.00032527,-5.46e-05,0.0,0 STARLINK-4042,1 52661U 22053F   23106.03502798 -.00005460  00000-0 -32527-3 0  9997,2 52661  53.2165 226.6113 0001642 231.6221 128.4624 15.08833499 51222,6917.9,95.438,540.901,538.629,0.0
52661.0,STARLINK-4042,PAYLOAD,2023-04-16 13:33:32,15.08848914,0.0001107,53.2158,224.2298,99.9332,260.1785,0.00042896,6.547e-05,0.0,0 STARLINK-4042,1 52661U 22053F   23106.56495374  .00006547  00000-0  42896-3 0  9991,2 52661  53.2158 224.2298 0001107  99.9332 260.1785 15.08848914 51305,6917.853,95.437,540.484,538.952,0.0
52661.0,STARLINK-4042,PAYLOAD,2023-04-16 16:44:18,15.08858979,0.0001188,53.2165,223.636,105.1282,254.9842,0.00073753,0.00011475,0.0,0 STARLINK-4042,1 52661U 22053F   23106.69743182  .00011475  00000-0  73753-3 0  9990,2 52661  53.2165 223.6360 0001188 105.1282 254.9842 15.08858979 51328,6917.822,95.436,540.509,538.866,0.0
52661.0,STARLINK-4042,PAYLOAD,2023-04-17 13:24:18,15.08844623,0.0001218,53.2155,219.7704,83.8326,276.2805,0.00018977,2.734e-05,0.0,0 STARLINK-4042,1 52661U 22053F   23107.55855321  .00002734  00000-0  18977-3 0  9990,2 52661  53.2155 219.7704 0001218  83.8326 276.2805 15.08844623 51451,6917.866,95.437,540.574,538.889,0.0
52661.0,STARLINK-4042,PAYLOAD,2023-04-17 16:35:05,15.08853174,0.0001222,53.2154,219.1757,81.8251,278.288,0.00033644,5.073e-05,0.0,0 STARLINK-4042,1 52661U 22053F   23107.69103045  .00005073  00000-0  33644-3 0  9991,2 52661  53.2154 219.1757 0001222  81.8251 278.2880 15.08853174 51470,6917.84,95.437,540.55,538.86,0.0
52661.0,STARLINK-4042,PAYLOAD,2023-04-18 10:04:20,15.08832146,0.0001063,53.2155,215.9039,95.1181,264.9932,5.1117e-05,5.26e-06,0.0,0 STARLINK-4042,1 52661U 22053F   23108.41967728  .00000526  00000-0  51117-4 0  9992,2 52661  53.2155 215.9039 0001063  95.1181 264.9932 15.08832146 51589,6917.904,95.438,540.505,539.034,0.0
52661.0,STARLINK-4042,PAYLOAD,2023-04-18 16:25:52,15.08835849,9.37e-05,53.2154,214.7134,82.1843,277.9255,0.00043765,6.683e-05,0.0,0 STARLINK-4042,1 52661U 22053F   23108.68463781  .00006683  00000-0  43765-3 0  9990,2 52661  53.2154 214.7134 0000937  82.1843 277.9255 15.08835849 51621,6917.893,95.438,540.406,539.11,0.0
52661.0,STARLINK-4042,PAYLOAD,2023-04-19 06:44:21,15.08834427,0.0001509,53.2167,212.0397,71.1137,289.0019,0.00020265,2.938e-05,0.0,0 STARLINK-4042,1 52661U 22053F   23109.28080520  .00002938  00000-0  20265-3 0  9992,2 52661  53.2167 212.0397 0001509  71.1137 289.0019 15.08834427 51710,6917.897,95.438,540.806,538.719,0.0
52661.0,STARLINK-4042,PAYLOAD,2023-04-19 17:52:02,15.08851928,0.0001127,53.2154,209.9516,101.4415,258.6704,0.00063404,9.82e-05,0.0,0 STARLINK-4042,1 52661U 22053F   23109.74447858  .00009820  00000-0  63404-3 0  9993,2 52661  53.2154 209.9516 0001127 101.4415 258.6704 15.08851928 51781,6917.844,95.437,540.489,538.929,0.0
52661.0,STARLINK-4042,PAYLOAD,2023-04-20 06:35:08,15.08835893,0.0001502,53.2152,207.5772,65.7159,294.399,0.00015677,2.208e-05,0.0,0 STARLINK-4042,1 52661U 22053F   23110.27440781  .00002208  00000-0  15677-3 0  9993,2 52661  53.2152 207.5772 0001502  65.7159 294.3990 15.08835893 51867,6917.893,95.438,540.797,538.719,0.0
52661.0,STARLINK-4042,PAYLOAD,2023-04-20 17:42:50,15.08850958,0.0001589,53.2151,205.4928,82.5363,277.581,0.000459,7.027e-05,0.0,0 STARLINK-4042,1 52661U 22053F   23110.73808330  .00007027  00000-0  45900-3 0  9998,2 52661  53.2151 205.4928 0001589  82.5363 277.5810 15.08850958 51936,6917.847,95.437,540.811,538.613,0.0
52661.0,STARLINK-4042,PAYLOAD,2023-04-21 08:01:19,15.08833056,0.0001695,53.2155,202.8212,58.4689,301.6469,-1.2498e-05,-4.87e-06,0.0,0 STARLINK-4042,1 52661U 22053F   23111.33425035 -.00000487  00000-0 -12498-4 0  9994,2 52661  53.2155 202.8212 0001695  58.4689 301.6469 15.08833056 52028,6917.902,95.438,540.939,538.594,0.0
52661.0,STARLINK-4042,PAYLOAD,2023-04-21 15:58:14,15.08842026,0.0001547,53.2148,201.332,76.551,283.5655,0.00021659,3.161e-05,0.0,0 STARLINK-4042,1 52661U 22053F   23111.66544879  .00003161  00000-0  21659-3 0  9996,2 52661  53.2148 201.3320 0001547  76.5510 283.5655 15.08842026 52071,6917.874,95.437,540.809,538.669,0.0
52661.0,STARLINK-4042,PAYLOAD,2023-04-22 22:10:34,15.08834005,0.0001388,53.2147,195.6819,91.2735,268.8416,-9.8137e-06,-4.44e-06,0.0,0 STARLINK-4042,1 52661U 22053F   23112.92400987 -.00000444  00000-0 -98137-5 0  9997,2 52661  53.2147 195.6819 0001388  91.2735 268.8416 15.08834005 52264,6917.899,95.438,540.724,538.804,0.0
52661.0,STARLINK-4042,PAYLOAD,2023-04-23 07:42:53,15.08832656,0.0001342,53.2159,193.8986,97.5207,262.5938,-0.00015083,-2.687e-05,0.0,0 STARLINK-4042,1 52661U 22053F   23113.32145043 -.00002687  00000-0 -15083-3 0  9999,2 52661  53.2159 193.8986 0001342  97.5207 262.5938 15.08832656 52322,6917.903,95.438,540.696,538.839,0.0
52661.0,STARLINK-4042,PAYLOAD,2023-04-23 14:04:26,15.08836446,0.0001396,53.2155,192.7091,91.4053,268.7099,3.4372e-05,2.59e-06,0.0,0 STARLINK-4042,1 52661U 22053F   23113.58641218  .00000259  00000-0  34372-4 0  9996,2 52661  53.2155 192.7091 0001396  91.4053 268.7099 15.08836446 52365,6917.891,95.438,540.722,538.791,0.0
